STARLINK-2607_new
1 18391C 21038AQ  21326.17690721 -.00014080  00000-0 -94327-3 0  3263
2 18391  53.0522 182.9426 0001761  84.6433 150.0912 15.06415822    12
STARLINK-2607_old
1 28391C 21038AQ  21325.11006030 -.00032774  00000-0 -21967-2 0  3258
2 28391  53.0527 187.7317 0001814  85.1817 120.7885 15.06417409    16
